{
    "links": {
        "self": "http://www.neowsapp.com/rest/v1/neo/3741439?api_key=iIulBulltgU6a56xZRHN4H3l9WmuAYTsLGpBGhQ2"
    },
    "id": "3741439",
    "neo_reference_id": "3741439",
    "name": "(2016 CK18)",
    "designation": "2016 CK18",
    "nasa_jpl_url": "http://ssd.jpl.nasa.gov/sbdb.cgi?sstr=3741439",
    "absolute_magnitude_h": 24.2,
    "estimated_diameter": {
        "kilometers": {
            "estimated_diameter_min": 0.0384197891,
            "estimated_diameter_max": 0.0859092601
        },
        "meters": {
            "estimated_diameter_min": 38.4197891064,
            "estimated_diameter_max": 85.9092601232
        },
        "miles": {
            "estimated_diameter_min": 0.0238729428,
            "estimated_diameter_max": 0.0533815229
        },
        "feet": {
            "estimated_diameter_min": 126.0491808919,
            "estimated_diameter_max": 281.8545369825
        }
    },
    "is_potentially_hazardous_asteroid": false,
    "close_approach_data": [
        {
            "close_approach_date": "2012-08-21",
            "close_approach_date_full": "2012-Aug-21 21:16",
            "epoch_date_close_approach": 1345583760000,
            "relative_velocity": {
                "kilometers_per_second": "18.4489260157",
                "kilometers_per_hour": "66416.1336566046",
                "miles_per_hour": "41268.4026045719"
            },
            "miss_distance": {
                "astronomical": "0.3483659834",
                "lunar": "135.5143675426",
                "kilometers": "52114809.097095358",
                "miles": "32382640.7699296204"
            },
            "orbiting_body": "Earth"
        },
        {
            "close_approach_date": "2015-08-18",
            "close_approach_date_full": "2015-Aug-18 22:50",
            "epoch_date_close_approach": 1439938200000,
            "relative_velocity": {
                "kilometers_per_second": "10.585402638",
                "kilometers_per_hour": "38107.4494966214",
                "miles_per_hour": "23678.4871608312"
            },
            "miss_distance": {
                "astronomical": "0.3109688398",
                "lunar": "120.9668786822",
                "kilometers": "46520276.070451226",
                "miles": "28906359.1444938788"
            },
            "orbiting_body": "Earth"
        },
        {
            "close_approach_date": "2016-01-23",
            "close_approach_date_full": "2016-Jan-23 08:48",
            "epoch_date_close_approach": 1453538880000,
            "relative_velocity": {
                "kilometers_per_second": "12.675229406",
                "kilometers_per_hour": "45630.8258615741",
                "miles_per_hour": "28353.2206582653"
            },
            "miss_distance": {
                "astronomical": "0.1201546514",
                "lunar": "46.7401593946",
                "kilometers": "17974879.920032518",
                "miles": "11169072.4655360284"
            },
            "orbiting_body": "Earth"
        }
    ],
    "orbital_data": {
        "orbit_id": "4",
        "orbit_determination_date": "2017-04-06 08:28:44",
        "first_observation_date": "2016-02-01",
        "last_observation_date": "2016-02-13",
        "data_arc_in_days": 12,
        "observations_used": 12,
        "orbit_uncertainty": "8",
        "minimum_orbit_intersection": ".119242",
        "jupiter_tisserand_invariant": "4.795",
        "epoch_osculation": "2457420.5",
        "eccentricity": ".3111930172447878",
        "semi_major_axis": "1.337379886200646",
        "inclination": "20.23252235502709",
        "ascending_node_longitude": "134.0496672568937",
        "orbital_period": "564.9117496341784",
        "perihelion_distance": ".9211966042113762",
        "perihelion_argument": "280.8482100924944",
        "aphelion_distance": "1.753563168189916",
        "perihelion_time": "2457351.481033759118",
        "mean_anomaly": "43.98355648082671",
        "mean_motion": ".637267679833401",
        "equinox": "J2000",
        "orbit_class": {
            "orbit_class_type": "APO",
            "orbit_class_description": "Near-Earth asteroid orbits which cross the Earth’s orbit similar to that of 1862 Apollo",
            "orbit_class_range": "a (semi-major axis) > 1.0 AU; q (perihelion) < 1.017 AU"
        }
    },
    "is_sentry_object": false
}